GLOBALSTAR M084         
1 38040U 11080A   24307.94610784 -.00000061  00000+0  23887-3 0  9998
2 38040  52.0036  17.2338 0000201 137.4203  33.7929 12.62269617594092
GLOBALSTAR M080         
1 38041U 11080B   24307.91989509 -.00000072  00000+0  17621-3 0  9991
2 38041  52.0088  18.8415 0000414 174.4532 357.1234 12.62267607594353
GLOBALSTAR M082         
1 38042U 11080C   24307.85395565 -.00000070  00000+0  18799-3 0  9993
2 38042  52.0094 334.4659 0000824  69.2118 102.8132 12.62268842594910
GLOBALSTAR M092         
1 38043U 11080D   24307.63519531 -.00000086  00000+0  10074-3 0  9996
2 38043  52.0092  65.4919 0000614 101.8527 275.7488 12.62268777593340
GLOBALSTAR M090         
1 38044U 11080E   24307.80087328 -.00000066  00000+0  21247-3 0  9992
2 38044  51.9901 328.7268 0000596  78.1463  92.9129 12.62269959595025
GLOBALSTAR M086         
1 38045U 11080F   24307.82716833 -.00000063  00000+0  22653-3 0  9994
2 38045  51.9912 329.1796 0000949 157.5683  13.6076 12.62269374594972
GLOBALSTAR M097         
1 39072U 13005A   24307.89547086 -.00000033  00000+0  39565-3 0  9990
2 39072  52.0046 243.2890 0000793  80.7563 279.3394 12.62266736542230
GLOBALSTAR M093         
1 39073U 13005B   24307.55199364 -.00000066  00000+0  21033-3 0  9993
2 39073  51.9807 237.9986 0000920  77.2269 282.8701 12.62266651542266
